{"type": "FeatureCollection", "features": [ {"type": "Feature", "properties": {"norad_id": 43437, "name": "SENTINEL-3B", "group": "resource", "lat": -37.94853639797554, "lon": 72.09911746034902, "alt_km": 809.6829939180561, "timestamp": "2025-12-26T07:29:18.117346+00:00", "meta": {"OBJECT_NAME": "SENTINEL-3B", "OBJECT_ID": "2018-039A", "EPOCH": "2025-12-25T18:12:12.174336", "MEAN_MOTION": 14.26739017, "ECCENTRICITY": 0.00015862, "INCLINATION": 98.6249, "RA_OF_ASC_NODE": 64.7561, "ARG_OF_PERICENTER": 88.7501, "MEAN_ANOMALY": 271.3861, "EPHEMERIS_TYPE": 0, "CLASSIFICATION_TYPE": "U", "NORAD_CAT_ID": 43437, "ELEMENT_SET_NO": 999, "REV_AT_EPOCH": 39939, "BSTAR": 7.9528122e-05, "MEAN_MOTION_DOT": 1.49e-06, "MEAN_MOTION_DDOT": 0}, "tle": {"line1": "1 43437U 18039A   25359.75847424  .00000149  00000+0  79528-4 0  9995", "line2": "2 43437  98.6249  64.7561 0001586  88.7501 271.3861 14.26739017399390"}}, "geometry": {"type": "Point", "coordinates": [72.09911746034902, -37.94853639797554]}}, {"type": "Feature", "properties": {"norad_id": 43461, "name": "GAOFEN-5 01", "group": "resource", "lat": 25.66508087574497, "lon": 147.60634811402403, "alt_km": 690.8885652470781, "timestamp": "2025-12-26T07:29:18.117356+00:00", "meta": {"OBJECT_NAME": "GAOFEN-5 01", "OBJECT_ID": "2018-043A", "EPOCH": "2025-12-25T20:55:11.303904", "MEAN_MOTION": 14.60423654, "ECCENTRICITY": 5.489e-05, "INCLINATION": 98.4347, "RA_OF_ASC_NODE": 323.0695, "ARG_OF_PERICENTER": 234.7022, "MEAN_ANOMALY": 125.4127, "EPHEMERIS_TYPE": 0, "CLASSIFICATION_TYPE": "U", "NORAD_CAT_ID": 43461, "ELEMENT_SET_NO": 999, "REV_AT_EPOCH": 40639, "BSTAR": 0.00011249233, "MEAN_MOTION_DOT": 4.96e-06, "MEAN_MOTION_DDOT": 0}, "tle": {"line1": "1 43461U 18043A   25359.87165861  .00000496  00000+0  11249-3 0  9998", "line2": "2 43461  98.4347 323.0695 0000548 234.7022 125.4127 14.60423654406399"}}, "geometry": {"type": "Point", "coordinates": [147.60634811402403, 25.66508087574497]}}, {"type": "Feature", "properties": {"norad_id": 43484, "name": "GAOFEN-6", "group": "resource", "lat": -36.86306609037218, "lon": -121.77825995424868, "alt_km": 655.0012082255507, "timestamp": "2025-12-26T07:29:18.117366+00:00", "meta": {"OBJECT_NAME": "GAOFEN-6", "OBJECT_ID": "2018-048A", "EPOCH": "2025-12-25T22:22:34.156128", "MEAN_MOTION": 14.76587829, "ECCENTRICITY": 0.00124958, "INCLINATION": 97.801, "RA_OF_ASC_NODE": 63.755, "ARG_OF_PERICENTER": 24.2659, "MEAN_ANOMALY": 335.9137, "EPHEMERIS_TYPE": 0, "CLASSIFICATION_TYPE": "U", "NORAD_CAT_ID": 43484, "ELEMENT_SET_NO": 999, "REV_AT_EPOCH": 40782, "BSTAR": 8.8885741e-05, "MEAN_MOTION_DOT": 5.72e-06, "MEAN_MOTION_DDOT": 0}, "tle": {"line1": "1 43484U 18048A   25359.93233977  .00000572  00000+0  88886-4 0  9996", "line2": "2 43484  97.8010  63.7550 0012495  24.2659 335.9137 14.76587829407824"}}, "geometry": {"type": "Point", "coordinates": [-121.77825995424868, -36.86306609037218]}}, {"type": "Feature", "properties": {"norad_id": 43585, "name": "GAOFEN-11 01", "group": "resource", "lat": -23.682734315490432, "lon": 66.29252369628955, "alt_km": 423.6658754375949, "timestamp": "2025-12-26T07:29:18.117376+00:00", "meta": {"OBJECT_NAME": "GAOFEN-11 01", "OBJECT_ID": "2018-063A", "EPOCH": "2025-12-25T22:17:32.187264", "MEAN_MOTION": 15.49581921, "ECCENTRICITY": 0.00039089, "INCLINATION": 97.1537, "RA_OF_ASC_NODE": 62.7545, "ARG_OF_PERICENTER": 245.0969, "MEAN_ANOMALY": 114.9877, "EPHEMERIS_TYPE": 0, "CLASSIFICATION_TYPE": "U", "NORAD_CAT_ID": 43585, "ELEMENT_SET_NO": 999, "REV_AT_EPOCH": 41346, "BSTAR": 0.0001656522, "MEAN_MOTION_DOT": 9.058e-05, "MEAN_MOTION_DDOT": 0}, "tle": {"line1": "1 43585U 18063A   25359.92884476  .00009058  00000+0  16565-3 0  9992", "line2": "2 43585  97.1537  62.7545 0003908 245.0969 114.9877 15.49581921413463"}}, "geometry": {"type": "Point", "coordinates": [66.29252369628955, -23.682734315490432]}}, {"type": "Feature", "properties": {"norad_id": 43613, "name": "ICESAT-2", "group": "resource", "lat": 62.49869537388115, "lon": 68.25572453599027, "alt_km": 472.91754817899346, "timestamp": "2025-12-26T07:29:18.117392+00:00", "meta": {"OBJECT_NAME": "ICESAT-2", "OBJECT_ID": "2018-070A", "EPOCH": "2025-12-25T21:32:51.417312", "MEAN_MOTION": 15.28253481, "ECCENTRICITY": 0.00031447, "INCLINATION": 92.0035, "RA_OF_ASC_NODE": 244.2884, "ARG_OF_PERICENTER": 109.1876, "MEAN_ANOMALY": 250.9714, "EPHEMERIS_TYPE": 0, "CLASSIFICATION_TYPE": "U", "NORAD_CAT_ID": 43613, "ELEMENT_SET_NO": 999, "REV_AT_EPOCH": 40599, "BSTAR": 0.00046807058, "MEAN_MOTION_DOT": 0.00012886, "MEAN_MOTION_DDOT": 0}, "tle": {"line1": "1 43613U 18070A   25359.89781733  .00012886  00000+0  46807-3 0  9995", "line2": "2 43613  92.0035 244.2884 0003144 109.1876 250.9714 15.28253481405998"}}, "geometry": {"type": "Point", "coordinates": [68.25572453599027, 62.49869537388115]}}, {"type": "Feature", "properties": {"norad_id": 43719, "name": "HYSIS", "group": "resource", "lat": -5.575848887034887, "lon": 64.00971245344113, "alt_km": 636.9165769272286, "timestamp": "2025-12-26T07:29:18.117402+00:00", "meta": {"OBJECT_NAME": "HYSIS", "OBJECT_ID": "2018-096A", "EPOCH": "2025-12-25T21:46:09.982272", "MEAN_MOTION": 14.78679614, "ECCENTRICITY": 8.166e-05, "INCLINATION": 98.0077, "RA_OF_ASC_NODE": 62.8194, "ARG_OF_PERICENTER": 55.4476, "MEAN_ANOMALY": 304.6812, "EPHEMERIS_TYPE": 0, "CLASSIFICATION_TYPE": "U", "NORAD_CAT_ID": 43719, "ELEMENT_SET_NO": 999, "REV_AT_EPOCH": 38181, "BSTAR": 0.0001632923, "MEAN_MOTION_DOT": 1.145e-05, "MEAN_MOTION_DDOT": 0}, "tle": {"line1": "1 43719U 18096A   25359.90705998  .00001145  00000+0  16329-3 0  9993", "line2": "2 43719  98.0077  62.8194 0000816  55.4476 304.6812 14.78679614381811"}}, "geometry": {"type": "Point", "coordinates": [64.00971245344113, -5.575848887034887]}}, {"type": "Feature", "properties": {"norad_id": 43783, "name": "KAZSTSAT", "group": "resource", "lat": 19.73398174386258, "lon": -142.397856468292, "alt_km": 570.5346520626817, "timestamp": "2025-12-26T07:29:18.117412+00:00", "meta": {"OBJECT_NAME": "KAZSTSAT", "OBJECT_ID": "2018-099AB", "EPOCH": "2025-12-25T16:21:41.281920", "MEAN_MOTION": 14.99372858, "ECCENTRICITY": 0.00063462, "INCLINATION": 97.4512, "RA_OF_ASC_NODE": 34.3083, "ARG_OF_PERICENTER": 272.4562, "MEAN_ANOMALY": 87.5935, "EPHEMERIS_TYPE": 0, "CLASSIFICATION_TYPE": "U", "NORAD_CAT_ID": 43783, "ELEMENT_SET_NO": 999, "REV_AT_EPOCH": 38530, "BSTAR": 6.2859859e-05, "MEAN_MOTION_DOT": 7.13e-06, "MEAN_MOTION_DDOT": 0}, "tle": {"line1": "1 43783U 18099AB  25359.68172780  .00000713  00000+0  62860-4 0  9991", "line2": "2 43783  97.4512  34.3083 0006346 272.4562  87.5935 14.99372858385305"}}, "geometry": {"type": "Point", "coordinates": [-142.397856468292, 19.73398174386258]}}, {"type": "Feature", "properties": {"norad_id": 43831, "name": "SAUDISAT 5A", "group": "resource", "lat": 58.568101616089734, "lon": 48.07681120390245, "alt_km": 475.90034068615114, "timestamp": "2025-12-26T07:29:18.117422+00:00", "meta": {"OBJECT_NAME": "SAUDISAT 5A", "OBJECT_ID": "2018-102A", "EPOCH": "2025-12-25T23:21:36.131904", "MEAN_MOTION": 15.25817593, "ECCENTRICITY": 0.00109888, "INCLINATION": 97.333, "RA_OF_ASC_NODE": 59.9086, "ARG_OF_PERICENTER": 34.9428, "MEAN_ANOMALY": 325.253, "EPHEMERIS_TYPE": 0, "CLASSIFICATION_TYPE": "U", "NORAD_CAT_ID": 43831, "ELEMENT_SET_NO": 999, "REV_AT_EPOCH": 38924, "BSTAR": 0.00025489292, "MEAN_MOTION_DOT": 6.457e-05, "MEAN_MOTION_DDOT": 0}, "tle": {"line1": "1 43831U 18102A   25359.97333486  .00006457  00000+0  25489-3 0  9990", "line2": "2 43831  97.3330  59.9086 0010988  34.9428 325.2530 15.25817593389241"}}, "geometry": {"type": "Point", "coordinates": [48.07681120390245, 58.568101616089734]}}, {"type": "Feature", "properties": {"norad_id": 43833, "name": "SAUDISAT 5B", "group": "resource", "lat": 50.57565751095806, "lon": -107.97239683535888, "alt_km": 483.1066292927653, "timestamp": "2025-12-26T07:29:18.117433+00:00", "meta": {"OBJECT_NAME": "SAUDISAT 5B", "OBJECT_ID": "2018-102C", "EPOCH": "2025-12-25T23:03:32.643072", "MEAN_MOTION": 15.26162861, "ECCENTRICITY": 0.00117429, "INCLINATION": 97.3425, "RA_OF_ASC_NODE": 62.6586, "ARG_OF_PERICENTER": 37.0179, "MEAN_ANOMALY": 323.1868, "EPHEMERIS_TYPE": 0, "CLASSIFICATION_TYPE": "U", "NORAD_CAT_ID": 43833, "ELEMENT_SET_NO": 999, "REV_AT_EPOCH": 38935, "BSTAR": 0.00022589987, "MEAN_MOTION_DOT": 5.775e-05, "MEAN_MOTION_DDOT": 0}, "tle": {"line1": "1 43833U 18102C   25359.96079448  .00005775  00000+0  22590-3 0  9998", "line2": "2 43833  97.3425  62.6586 0011742  37.0179 323.1868 15.26162861389355"}}, "geometry": {"type": "Point", "coordinates": [-107.97239683535888, 50.57565751095806]}}, {"type": "Feature", "properties": {"norad_id": 44622, "name": "GAOFEN-10R", "group": "resource", "lat": 57.51916563423509, "lon": 140.68416745074867, "alt_km": 617.2767925774579, "timestamp": "2025-12-26T07:29:18.117444+00:00", "meta": {"OBJECT_NAME": "GAOFEN-10R", "OBJECT_ID": "2019-066A", "EPOCH": "2025-12-25T22:50:42.151200", "MEAN_MOTION": 14.8283579, "ECCENTRICITY": 0.00069325, "INCLINATION": 98.0296, "RA_OF_ASC_NODE": 307.511, "ARG_OF_PERICENTER": 2.7605, "MEAN_ANOMALY": 357.3645, "EPHEMERIS_TYPE": 0, "CLASSIFICATION_TYPE": "U", "NORAD_CAT_ID": 44622, "ELEMENT_SET_NO": 999, "REV_AT_EPOCH": 33670, "BSTAR": 0.00021169332, "MEAN_MOTION_DOT": 1.659e-05, "MEAN_MOTION_DDOT": 0}, "tle": {"line1": "1 44622U 19066A   25359.95187675  .00001659  00000+0  21169-3 0  9994", "line2": "2 44622  98.0296 307.5110 0006932   2.7605 357.3645 14.82835790336700"}}, "geometry": {"type": "Point", "coordinates": [140.68416745074867, 57.51916563423509]}}]}